[
  {
    "name": "KUIPER-00103",
    "noradId": "65141",
    "line1": "1 65141U 25171K   26154.19046450 -.00000373  00000+0 -19882-4 0  9996",
    "line2": "2 65141  51.8972 152.4761 0000394  71.2328 288.8677 14.79932078 45371"
  },
  {
    "name": "KUIPER-00104",
    "noradId": "65142",
    "line1": "1 65142U 25171L   26153.19100062  .00002817  00000+0  39836-3 0  9999",
    "line2": "2 65142  51.8998 144.3819 0000499  58.5636 301.5375 14.79933218 45409"
  },
  {
    "name": "KUIPER-00105",
    "noradId": "65143",
    "line1": "1 65143U 25171M   26154.22962544  .00002433  00000+0  34812-3 0  9999",
    "line2": "2 65143  51.8974 147.3952 0000683  87.2419 272.8621 14.79920996 45456"
  },
  {
    "name": "KUIPER-00106",
    "noradId": "65144",
    "line1": "1 65144U 25171N   26154.25004630 -.00017889  00000+0 -19782-2 0  9997",
    "line2": "2 65144  51.8981 126.2917 0007113  38.9429  65.9443 14.86541214  5113"
  },
  {
    "name": "KUIPER-00107",
    "noradId": "65145",
    "line1": "1 65145U 25171P   26154.18107577  .00003198  00000+0  44885-3 0  9993",
    "line2": "2 65145  51.8981 130.0517 0000476  66.6853 293.4159 14.79877616 45696"
  },
  {
    "name": "KUIPER-00108",
    "noradId": "65146",
    "line1": "1 65146U 25171Q   26154.20126463  .00001838  00000+0  27002-3 0  9993",
    "line2": "2 65146  51.9005 142.4928 0000508  49.3067 310.7940 14.79934106 45520"
  },
  {
    "name": "KUIPER-00109",
    "noradId": "65147",
    "line1": "1 65147U 25171R   26154.17285161  .00002960  00000+0  41706-3 0  9995",
    "line2": "2 65147  51.8997 137.5603 0000513  80.2962 279.8058 14.79939020 45580"
  },
  {
    "name": "KUIPER-00110",
    "noradId": "65148",
    "line1": "1 65148U 25171S   26154.19317641  .00002357  00000+0  33803-3 0  9996",
    "line2": "2 65148  51.8993 150.0372 0000599  99.2353 260.8677 14.79931813 45408"
  },
  {
    "name": "KUIPER-00111",
    "noradId": "65149",
    "line1": "1 65149U 25171T   26154.22153153  .00002451  00000+0  35043-3 0  9990",
    "line2": "2 65149  51.8960 154.7994 0000469  82.7869 277.3147 14.79933778 45349"
  },
  {
    "name": "KUIPER-00112",
    "noradId": "65150",
    "line1": "1 65150U 25171U   26154.25004630 -.00003650  00000+0 -46175-3 0  9992",
    "line2": "2 65150  51.8995 137.2560 0001759 107.6622 131.9746 14.78870171  4634"
  },
  {
    "name": "KUIPER-00114",
    "noradId": "65151",
    "line1": "1 65151U 25171V   26154.21884228  .00002273  00000+0  32701-3 0  9996",
    "line2": "2 65151  51.8971 157.3884 0000500  37.3937 322.7060 14.79940494 45307"
  },
  {
    "name": "KUIPER-00115",
    "noradId": "65152",
    "line1": "1 65152U 25171W   26154.22689233  .00002037  00000+0  29616-3 0  9996",
    "line2": "2 65152  51.8991 149.8483 0000567  94.5430 265.5597 14.79937339 45412"
  },
  {
    "name": "KUIPER-00116",
    "noradId": "65153",
    "line1": "1 65153U 25171X   26154.18777942  .00000250  00000+0  61851-4 0  9990",
    "line2": "2 65153  51.8985 155.0595 0000668  28.2299 331.8700 14.79934389 45334"
  },
  {
    "name": "KUIPER-00118",
    "noradId": "65154",
    "line1": "1 65154U 25171Y   26154.25259524  .00000158  00000+0  49721-4 0  9999",
    "line2": "2 65154  51.8979 157.2248 0000533  89.8306 270.2717 14.79933201 45314"
  },
  {
    "name": "KUIPER-00119",
    "noradId": "65155",
    "line1": "1 65155U 25171Z   26154.19854194 -.00015269  00000+0 -19760-2 0  9996",
    "line2": "2 65155  51.8990 145.0546 0000958  73.0943 287.0124 14.79983186 45479"
  },
  {
    "name": "KUIPER-00120",
    "noradId": "65762",
    "line1": "1 65762U 25217A   26153.82760311  .00002916  00000+0  41125-3 0  9991",
    "line2": "2 65762  51.8998  36.5791 0000657 105.5679 254.5356 14.79940430 37348"
  },
  {
    "name": "KUIPER-00132",
    "noradId": "65763",
    "line1": "1 65763U 25217B   26153.69714805  .00061687  00000+0  14105-2 0  9991",
    "line2": "2 65763  51.8579 309.9684 0006153 278.5146  81.5145 15.42221575 38538"
  },
  {
    "name": "KUIPER-00133",
    "noradId": "65764",
    "line1": "1 65764U 25217C   26152.10560268  .00002328  00000+0  33423-3 0  9991",
    "line2": "2 65764  51.9023  44.2831 0000678 104.9308 255.1730 14.79943022 37091"
  },
  {
    "name": "KUIPER-00139",
    "noradId": "65765",
    "line1": "1 65765U 25217D   26154.25004630 -.00389475  00000+0 -42762-1 0  9993",
    "line2": "2 65765  51.8966   2.2947 0008504 238.1081 204.6984 14.89491663  4851"
  },
  {
    "name": "KUIPER-00142",
    "noradId": "65766",
    "line1": "1 65766U 25217E   26153.84648277  .00002376  00000+0  34058-3 0  9990",
    "line2": "2 65766  51.8998  19.0211 0000520  96.7769 263.3253 14.79932787 37592"
  },
  {
    "name": "KUIPER-00145",
    "noradId": "65767",
    "line1": "1 65767U 25217F   26153.84379006  .00003046  00000+0  42824-3 0  9997",
    "line2": "2 65767  51.9004  21.5548 0000678  89.9666 270.1374 14.79941003 37554"
  },
  {
    "name": "KUIPER-00147",
    "noradId": "65768",
    "line1": "1 65768U 25217G   26153.80732471  .00001641  00000+0  24422-3 0  9996",
    "line2": "2 65768  51.8995  24.2008 0000960  80.1749 279.9321 14.79935936 37516"
  },
  {
    "name": "KUIPER-00148",
    "noradId": "65769",
    "line1": "1 65769U 25217H   26153.78886174  .00003407  00000+0  52183-3 0  9991",
    "line2": "2 65769  51.9058   5.6919 0000996 124.6776 235.4279 14.75926656 37777"
  },
  {
    "name": "KUIPER-00150",
    "noradId": "65770",
    "line1": "1 65770U 25217J   26152.10829901  .00003654  00000+0  50801-3 0  9992",
    "line2": "2 65770  51.9020  41.7380 0000614  95.6104 264.4928 14.79939392 37127"
  },
  {
    "name": "KUIPER-00151",
    "noradId": "65771",
    "line1": "1 65771U 25217K   26153.80463529  .00001823  00000+0  26811-3 0  9991",
    "line2": "2 65771  51.9020  26.7339 0000724 102.9988 257.1055 14.79934784 37488"
  },
  {
    "name": "KUIPER-00152",
    "noradId": "65772",
    "line1": "1 65772U 25217L   26153.78434520  .00000684  00000+0  11873-3 0  9994",
    "line2": "2 65772  51.9006  14.3102 0000841 115.1190 244.9860 14.79935175 37657"
  },
  {
    "name": "KUIPER-00153",
    "noradId": "65773",
    "line1": "1 65773U 25217M   26152.03398979  .00005103  00000+0  69679-3 0  9997",
    "line2": "2 65773  51.9035  17.1186 0000997 121.1222 238.9839 14.80000069 37463"
  },
  {
    "name": "KUIPER-00155",
    "noradId": "65774",
    "line1": "1 65774U 25217N   26153.81940482  .00002427  00000+0  34718-3 0  9999",
    "line2": "2 65774  51.9024 341.6850 0000743 129.3218 230.7810 14.79940094 38110"
  },
  {
    "name": "KUIPER-00156",
    "noradId": "65775",
    "line1": "1 65775U 25217P   26153.82350824  .00002900  00000+0  40918-3 0  9991",
    "line2": "2 65775  51.9049   9.1826 0000741 135.8272 224.2750 14.79942063 37722"
  },
  {
    "name": "KUIPER-00163",
    "noradId": "65777",
    "line1": "1 65777U 25217R   26154.25004630  .00081963  00000+0  34983-3 0  9993",
    "line2": "2 65777  51.8923 338.1368 0003308 250.2847 303.2529 15.84477982  4188"
  },
  {
    "name": "KUIPER-00165",
    "noradId": "65778",
    "line1": "1 65778U 25217S   26153.81271942  .00002585  00000+0  36797-3 0  9995",
    "line2": "2 65778  51.9010  19.1873 0000784 113.8364 246.2680 14.79940184 37583"
  },
  {
    "name": "KUIPER-00166",
    "noradId": "65779",
    "line1": "1 65779U 25217T   26153.79244304  .00002242  00000+0  32292-3 0  9991",
    "line2": "2 65779  51.9019   6.8175 0000425 105.9075 254.1934 14.79936586 37754"
  },
  {
    "name": "KUIPER-00167",
    "noradId": "65780",
    "line1": "1 65780U 25217U   26153.80188871  .00000140  00000+0  47390-4 0  9992",
    "line2": "2 65780  51.8958  29.1576 0001165 145.0202 215.0837 14.79954676 37443"
  },
  {
    "name": "KUIPER-00168",
    "noradId": "65781",
    "line1": "1 65781U 25217V   26153.75327992  .00002806  00000+0  39685-3 0  9994",
    "line2": "2 65781  51.9011  11.9542 0000586  74.8770 285.2258 14.79936552 37687"
  },
  {
    "name": "KUIPER-00169",
    "noradId": "65782",
    "line1": "1 65782U 25217W   26153.81541852  .00002231  00000+0  32149-3 0  9995",
    "line2": "2 65782  51.9005  16.6869 0000643 118.8280 241.2747 14.79938978 37627"
  },
  {
    "name": "KUIPER-00170",
    "noradId": "65783",
    "line1": "1 65783U 25217X   26153.80987590 -.00003565  00000+0 -43912-3 0  9991",
    "line2": "2 65783  51.8996  21.6770 0000660 111.3661 248.7372 14.79914950 37555"
  },
  {
    "name": "KUIPER-00172",
    "noradId": "65785",
    "line1": "1 65785U 25217Z   26154.25004630 -.00032330  00000+0 -42352-2 0  9996",
    "line2": "2 65785  51.8997   2.2606 0001987  15.2949 249.8372 14.79901315  5643"
  },
  {
    "name": "KUIPER-00173",
    "noradId": "65786",
    "line1": "1 65786U 25217AA  26153.78165351  .00002654  00000+0  37699-3 0  9995",
    "line2": "2 65786  51.9012  16.8346 0001015 101.2867 258.8209 14.79939613 37615"
  },
  {
    "name": "KUIPER-00174",
    "noradId": "65787",
    "line1": "1 65787U 25217AB  26153.78702409  .00000859  00000+0  14164-3 0  9994",
    "line2": "2 65787  51.9035  11.8508 0000797 115.4647 244.6398 14.79939375 37689"
  },
  {
    "name": "KUIPER-00176",
    "noradId": "65788",
    "line1": "1 65788U 25217AC  26153.83839501  .00001838  00000+0  27006-3 0  9992",
    "line2": "2 65788  51.9016  26.5709 0000870 114.6471 245.4582 14.79937415 37488"
  },
  {
    "name": "KUIPER-00101",
    "noradId": "65947",
    "line1": "1 65947U 25228A   26153.78293231  .00002928  00000+0  41288-3 0  9998",
    "line2": "2 65947  51.8984 344.2760 0001147 142.4618 217.6425 14.79939849 35832"
  },
  {
    "name": "KUIPER-00113",
    "noradId": "65948",
    "line1": "1 65948U 25228B   26153.82209993  .00002681  00000+0  38056-3 0  9991",
    "line2": "2 65948  51.8988 339.1238 0000707 135.5069 224.5950 14.79935304 35904"
  },
  {
    "name": "KUIPER-00117",
    "noradId": "65949",
    "line1": "1 65949U 25228C   26153.71810768  .00001579  00000+0  23604-3 0  9996",
    "line2": "2 65949  51.8982 342.0868 0000602 110.0710 250.0317 14.79934250 35850"
  }
]